[{"OBJECT_NAME":"KUIPER-00058","OBJECT_ID":"2025-134U","EPOCH":"2026-03-09T15:19:13.617984","MEAN_MOTION":14.79975539,"ECCENTRICITY":6.28e-5,"INCLINATION":51.9027,"RA_OF_ASC_NODE":225.7628,"ARG_OF_PERICENTER":103.1746,"MEAN_ANOMALY":256.9286,"EPHEMERIS_TYPE":0,"CLASSIFICATION_TYPE":"U","NORAD_CAT_ID":64518,"ELEMENT_SET_NO":999,"REV_AT_EPOCH":4017,"BSTAR":8.4835e-5,"MEAN_MOTION_DOT":4.26e-6,"MEAN_MOTION_DDOT":0},{"OBJECT_NAME":"SL-16 R\/B","OBJECT_ID":"1999-039B","EPOCH":"2026-03-09T18:24:22.966272","MEAN_MOTION":14.8173167,"ECCENTRICITY":0.00135065,"INCLINATION":97.9966,"RA_OF_ASC_NODE":127.8636,"ARG_OF_PERICENTER":255.8246,"MEAN_ANOMALY":104.1466,"EPHEMERIS_TYPE":0,"CLASSIFICATION_TYPE":"U","NORAD_CAT_ID":25861,"ELEMENT_SET_NO":999,"REV_AT_EPOCH":43687,"BSTAR":9.8724714e-5,"MEAN_MOTION_DOT":7.25e-6,"MEAN_MOTION_DDOT":0}]
